{
  "type": "FeatureCollection",
  "features": [
    {
      "type": "Feature",
      "properties": {
        "norad_id": 40228,
        "name": "COSMOS 2251 DEB",
        "group": "cosmos-2251-debris",
        "lat": -55.081599123168075,
        "lon": -140.04884011114453,
        "alt_km": 744.5853766366954,
        "timestamp": "2025-12-21T14:40:48.317136+00:00",
        "meta_object_name": "COSMOS 2251 DEB",
        "meta_object_id": "1993-036BVH",
        "meta_epoch": "2025-12-21T01:56:04.156224",
        "meta_mean_motion": 14.41008866,
        "meta_eccentricity": 0.00242231,
        "meta_inclination": 74.0544,
        "meta_ra_of_asc_node": 245.1093,
        "meta_arg_of_pericenter": 305.4166,
        "meta_mean_anomaly": 122.2778,
        "meta_ephemeris_type": 0,
        "meta_classification_type": "U",
        "meta_norad_cat_id": 40228,
        "meta_element_set_no": 999,
        "meta_rev_at_epoch": 59041,
        "meta_bstar": 0.00020328958,
        "meta_mean_motion_dot": 6.29e-06,
        "meta_mean_motion_ddot": 0,
        "tle_line1": "1 40228U 93036BVH 25355.08060366  .00000629  00000+0  20329-3 0  9991",
        "tle_line2": "2 40228  74.0544 245.1093 0024223 305.4166 122.2778 14.41008866590410"
      },
      "geometry": {
        "type": "Point",
        "coordinates": [
          -140.04884011114453,
          -55.081599123168075
        ]
      }
    },
    {
      "type": "Feature",
      "properties": {
        "norad_id": 40230,
        "name": "COSMOS 2251 DEB",
        "group": "cosmos-2251-debris",
        "lat": 10.035675248055895,
        "lon": -146.84222225600624,
        "alt_km": 732.0357330652523,
        "timestamp": "2025-12-21T14:40:48.317146+00:00",
        "meta_object_name": "COSMOS 2251 DEB",
        "meta_object_id": "1993-036BVK",
        "meta_epoch": "2025-12-20T07:41:52.070784",
        "meta_mean_motion": 14.49354869,
        "meta_eccentricity": 0.00189754,
        "meta_inclination": 74.0435,
        "meta_ra_of_asc_node": 212.675,
        "meta_arg_of_pericenter": 270.0639,
        "meta_mean_anomaly": 207.3635,
        "meta_ephemeris_type": 0,
        "meta_classification_type": "U",
        "meta_norad_cat_id": 40230,
        "meta_element_set_no": 999,
        "meta_rev_at_epoch": 59081,
        "meta_bstar": 0.00041501757,
        "meta_mean_motion_dot": 1.562e-05,
        "meta_mean_motion_ddot": 0,
        "tle_line1": "1 40230U 93036BVK 25354.32074156  .00001562  00000+0  41502-3 0  9995",
        "tle_line2": "2 40230  74.0435 212.6750 0018975 270.0639 207.3635 14.49354869590816"
      },
      "geometry": {
        "type": "Point",
        "coordinates": [
          -146.84222225600624,
          10.035675248055895
        ]
      }
    },
    {
      "type": "Feature",
      "properties": {
        "norad_id": 40233,
        "name": "COSMOS 2251 DEB",
        "group": "cosmos-2251-debris",
        "lat": 51.86319926209812,
        "lon": -115.39945474003225,
        "alt_km": 666.4373025348195,
        "timestamp": "2025-12-21T14:40:48.317156+00:00",
        "meta_object_name": "COSMOS 2251 DEB",
        "meta_object_id": "1993-036BVN",
        "meta_epoch": "2025-12-16T00:45:52.214112",
        "meta_mean_motion": 14.58458772,
        "meta_eccentricity": 0.0044987,
        "meta_inclination": 73.9406,
        "meta_ra_of_asc_node": 96.8035,
        "meta_arg_of_pericenter": 171.0622,
        "meta_mean_anomaly": 189.1354,
        "meta_ephemeris_type": 0,
        "meta_classification_type": "U",
        "meta_norad_cat_id": 40233,
        "meta_element_set_no": 999,
        "meta_rev_at_epoch": 59185,
        "meta_bstar": 0.00091306486,
        "meta_mean_motion_dot": 4.268e-05,
        "meta_mean_motion_ddot": 0,
        "tle_line1": "1 40233U 93036BVN 25350.03185433  .00004268  00000+0  91306-3 0  9996",
        "tle_line2": "2 40233  73.9406  96.8035 0044987 171.0622 189.1354 14.58458772591855"
      },
      "geometry": {
        "type": "Point",
        "coordinates": [
          -115.39945474003225,
          51.86319926209812
        ]
      }
    },
    {
      "type": "Feature",
      "properties": {
        "norad_id": 40236,
        "name": "COSMOS 2251 DEB",
        "group": "cosmos-2251-debris",
        "lat": -42.68786459776013,
        "lon": -34.395318957043976,
        "alt_km": 1494.3063841880094,
        "timestamp": "2025-12-21T14:40:48.317166+00:00",
        "meta_object_name": "COSMOS 2251 DEB",
        "meta_object_id": "1993-036BVR",
        "meta_epoch": "2025-12-07T17:52:23.026080",
        "meta_mean_motion": 13.24639967,
        "meta_eccentricity": 0.05366128,
        "meta_inclination": 73.5349,
        "meta_ra_of_asc_node": 151.6266,
        "meta_arg_of_pericenter": 32.3576,
        "meta_mean_anomaly": 330.9258,
        "meta_ephemeris_type": 0,
        "meta_classification_type": "U",
        "meta_norad_cat_id": 40236,
        "meta_element_set_no": 999,
        "meta_rev_at_epoch": 53558,
        "meta_bstar": 0.0015786255,
        "meta_mean_motion_dot": 1.455e-05,
        "meta_mean_motion_ddot": 0,
        "tle_line1": "1 40236U 93036BVR 25341.74471095  .00001455  00000+0  15786-2 0  9991",
        "tle_line2": "2 40236  73.5349 151.6266 0536612  32.3576 330.9258 13.24639967535580"
      },
      "geometry": {
        "type": "Point",
        "coordinates": [
          -34.395318957043976,
          -42.68786459776013
        ]
      }
    },
    {
      "type": "Feature",
      "properties": {
        "norad_id": 40238,
        "name": "COSMOS 2251 DEB",
        "group": "cosmos-2251-debris",
        "lat": -25.470239134020066,
        "lon": 42.11707974929378,
        "alt_km": 873.8019760309289,
        "timestamp": "2025-12-21T14:40:48.317176+00:00",
        "meta_object_name": "COSMOS 2251 DEB",
        "meta_object_id": "1993-036BVT",
        "meta_epoch": "2025-12-13T22:00:17.688960",
        "meta_mean_motion": 13.25118761,
        "meta_eccentricity": 0.05494159,
        "meta_inclination": 73.9889,
        "meta_ra_of_asc_node": 61.7905,
        "meta_arg_of_pericenter": 33.3831,
        "meta_mean_anomaly": 330.0665,
        "meta_ephemeris_type": 0,
        "meta_classification_type": "U",
        "meta_norad_cat_id": 40238,
        "meta_element_set_no": 999,
        "meta_rev_at_epoch": 54052,
        "meta_bstar": 0.0015955991,
        "meta_mean_motion_dot": 1.546e-05,
        "meta_mean_motion_ddot": 0,
        "tle_line1": "1 40238U 93036BVT 25347.91687140  .00001546  00000+0  15956-2 0  9998",
        "tle_line2": "2 40238  73.9889  61.7905 0549415  33.3831 330.0665 13.25118761540524"
      },
      "geometry": {
        "type": "Point",
        "coordinates": [
          42.11707974929378,
          -25.470239134020066
        ]
      }
    },
    {
      "type": "Feature",
      "properties": {
        "norad_id": 40239,
        "name": "COSMOS 2251 DEB",
        "group": "cosmos-2251-debris",
        "lat": -13.74422474946859,
        "lon": 82.86092402941584,
        "alt_km": 750.7489147974957,
        "timestamp": "2025-12-21T14:40:48.317187+00:00",
        "meta_object_name": "COSMOS 2251 DEB",
        "meta_object_id": "1993-036BVU",
        "meta_epoch": "2025-12-20T12:20:48.690816",
        "meta_mean_motion": 14.62025821,
        "meta_eccentricity": 0.00852453,
        "meta_inclination": 74.0316,
        "meta_ra_of_asc_node": 260.9453,
        "meta_arg_of_pericenter": 10.3713,
        "meta_mean_anomaly": 171.3204,
        "meta_ephemeris_type": 0,
        "meta_classification_type": "U",
        "meta_norad_cat_id": 40239,
        "meta_element_set_no": 999,
        "meta_rev_at_epoch": 59724,
        "meta_bstar": 0.00026861912,
        "meta_mean_motion_dot": 1.387e-05,
        "meta_mean_motion_ddot": 0,
        "tle_line1": "1 40239U 93036BVU 25354.51445244  .00001387  00000+0  26862-3 0  9992",
        "tle_line2": "2 40239  74.0316 260.9453 0085245  10.3713 171.3204 14.62025821597245"
      },
      "geometry": {
        "type": "Point",
        "coordinates": [
          82.86092402941584,
          -13.74422474946859
        ]
      }
    },
    {
      "type": "Feature",
      "properties": {
        "norad_id": 40792,
        "name": "COSMOS 2251 DEB",
        "group": "cosmos-2251-debris",
        "lat": 2.772686138880194,
        "lon": -150.46135957681707,
        "alt_km": 663.4186833512567,
        "timestamp": "2025-12-21T14:40:48.317197+00:00",
        "meta_object_name": "COSMOS 2251 DEB",
        "meta_object_id": "1993-036BVV",
        "meta_epoch": "2025-12-20T20:40:08.147424",
        "meta_mean_motion": 14.6764341,
        "meta_eccentricity": 0.00148584,
        "meta_inclination": 74.0454,
        "meta_ra_of_asc_node": 31.7806,
        "meta_arg_of_pericenter": 133.9286,
        "meta_mean_anomaly": 39.4947,
        "meta_ephemeris_type": 0,
        "meta_classification_type": "U",
        "meta_norad_cat_id": 40792,
        "meta_element_set_no": 999,
        "meta_rev_at_epoch": 63303,
        "meta_bstar": 0.00050720723,
        "meta_mean_motion_dot": 2.858e-05,
        "meta_mean_motion_ddot": 0,
        "tle_line1": "1 40792U 93036BVV 25354.86120541  .00002858  00000+0  50721-3 0  9999",
        "tle_line2": "2 40792  74.0454  31.7806 0014858 133.9286  39.4947 14.67643410633038"
      },
      "geometry": {
        "type": "Point",
        "coordinates": [
          -150.46135957681707,
          2.772686138880194
        ]
      }
    }
  ]
}